ONEWEB-0533             
1 55141U 23004B   23342.52210100  .00000413  00000+0  11117-2 0  9990
2 55141  87.9074 173.9351 0001394  83.0599 277.0688 13.12443027 47166
ONEWEB-0541             
1 55142U 23004C   23342.13717561  .00000216  00000+0  57315-3 0  9993
2 55142  87.8976 204.2805 0001613  75.3491 284.7816 13.11418083 45099
ONEWEB-0543             
1 55143U 23004D   23342.58334491  .00041200  00000+0  10406+0 0  9994
2 55143  87.9085 158.9343 0001165  99.9700 331.7375 13.18646622  5314
ONEWEB-0544             
1 55144U 23004E   23342.56190611  .00006009  00000+0  15205-1 0  9999
2 55144  87.9160 158.9247 0001857  95.6975 264.4369 13.18654759 48230
ONEWEB-0560             
1 55145U 23004F   23342.55560027  .00007287  00000+0  18448-1 0  9992
2 55145  87.9215 158.8354 0001462 127.4559 232.6706 13.18645850 48249
ONEWEB-0565             
1 55146U 23004G   23342.54929574  .00000017  00000+0  11002-4 0  9994
2 55146  87.9143 158.9409 0002398  95.0474 265.0932 13.18685078 48233
ONEWEB-0567             
1 55147U 23004H   23342.58334491 -.00038172  00000+0 -97252-1 0  9990
2 55147  87.9116 158.8941 0001834 111.9350  79.9844 13.18692944  5180
ONEWEB-0569             
1 55148U 23004J   23342.58334491 -.01273415  00000+0 -68702+0 0  9999
2 55148  87.0335 146.3656 0003457 142.0057 195.1602 14.16314587  5694
